IRIDIUM 921             
1 24873U 97034E   25030.82665289  .00588267  14448-3  13950-2 0  9993
2 24873  86.3609 172.2533 0005714 310.0083  50.0700 15.96716285510595
IRIDIUM 26              
1 24903U 97043A   25030.66585679  .00001082  00000+0  35904-3 0  9997
2 24903  86.4012 168.3431 0002007  99.5389 260.6035 14.36945639436992
IRIDIUM 22              
1 24907U 97043E   25030.62242086  .00000957  00000+0  32418-3 0  9996
2 24907  86.4014 171.7768 0002051  92.6144 267.5287 14.35780799437035
DUMMY MASS 1            
1 24925U 97048A   25030.52215117  .00001023  00000+0  11183-3 0  9996
2 24925  86.3362 198.9149 0004402 278.2180  81.8545 14.86763716484917
DUMMY MASS 2            
1 24926U 97048B   25030.52873511  .00001001  00000+0  11000-3 0  9999
2 24926  86.3361 200.4930 0005316 293.9776  66.0892 14.86517386484699
IRIDIUM 29              
1 24944U 97051A   25030.48362911  .00001044  00000+0  35110-3 0  9990
2 24944  86.3972 201.5880 0002024  85.0326 275.1102 14.36248945433729
IRIDIUM 33              
1 24946U 97051C   25030.52626406  .00000695  00000+0  23863-3 0  9992
2 24946  86.3889 200.8203 0008562 154.4023 205.7599 14.34743029433019
IRIDIUM 28              
1 24948U 97051E   25030.47662191  .00000939  00000+0  30910-3 0  9991
2 24948  86.3982 199.1869 0002108 103.1622 256.9810 14.37187213434137
